ONEWEB-0326             
1 49195U 21083K   23298.92977202 -.00000332  00000+0 -87386-3 0  9998
2 49195  87.9190 167.4582 0002041  96.9347 263.2017 13.18685530102781
ONEWEB-0327             
1 49196U 21083L   23298.59995372  .00000091  00000+0  19851-3 0  9992
2 49196  87.9250 167.5339 0001976  91.7716 268.3643 13.18684190102769
ONEWEB-0328             
1 49197U 21083M   23298.59476644  .00000338  00000+0  89142-3 0  9993
2 49197  87.9011 152.3845 0001435  87.0398 273.0895 13.13470066104149
ONEWEB-0331             
1 49198U 21083N   23298.61994512  .00000154  00000+0  35746-3 0  9993
2 49198  87.9186 167.5352 0001697  85.9876 274.1450 13.18686528102753
ONEWEB-0333             
1 49199U 21083P   23298.58945452  .00000442  00000+0  11745-2 0  9991
2 49199  87.9009 152.3882 0001704  72.7966 287.3350 13.13473375104151
ONEWEB-0334             
1 49200U 21083Q   23298.89371084  .00000116  00000+0  25231-3 0  9996
2 49200  87.9145 106.6632 0002145  66.2163 293.9195 13.20773795109373
ONEWEB-0335             
1 49201U 21083R   23298.88996326  .00000296  00000+0  77446-3 0  9992
2 49201  87.9009 152.3175 0001445  81.6067 278.5226 13.13471103105492
ONEWEB-0336             
1 49202U 21083S   23298.85820405 -.00000538  00000+0 -15076-2 0  9995
2 49202  87.9012 152.3212 0001717  76.0205 284.1115 13.13470442105498
ONEWEB-0337             
1 49203U 21083T   23298.86668989 -.00000102  00000+0 -31349-3 0  9993
2 49203  87.9007 152.3178 0001490  83.3268 276.8030 13.13469690105499
ONEWEB-0338             
1 49204U 21083U   23298.90001217  .00000061  00000+0  11766-3 0  9997
2 49204  87.9150 106.6319 0001507  71.8119 288.3179 13.20769947110690
ONEWEB-0339             
1 49205U 21083V   23298.88043131  .00000145  00000+0  36083-3 0  9998
2 49205  87.9009 152.3197 0001478  80.9579 279.1718 13.13472964104179
ONEWEB-0340             
1 49206U 21083W   23298.60519016  .00000039  00000+0  66690-4 0  9999
2 49206  87.9186 167.5312 0001645  83.7502 276.3817 13.18684689102717
ONEWEB-0341             
1 49207U 21083X   23299.14476094  .00003046  00000+0  76917-2 0  9990
2 49207  87.9271 167.4041 0001255  78.3037 281.8236 13.18669491104094
ONEWEB-0342             
1 49208U 21083Y   23299.51237593  .00000086  00000+0  18072-3 0  9991
2 49208  87.9143 106.5394 0001644  80.7777 279.3542 13.20770417110743
ONEWEB-0343             
1 49209U 21083Z   23298.60940124  .00000046  00000+0  84654-4 0  9998
2 49209  87.9252 167.5377 0000657  60.4566 299.6632 13.18685148102780
ONEWEB-0344             
1 49210U 21083AA  23298.61698725 -.00000229  00000+0 -66076-3 0  9990
2 49210  87.9012 152.3778 0001653  88.7903 271.3415 13.13471895104143
ONEWEB-0345             
1 49211U 21083AB  23298.86349154 -.00001053  00000+0 -29182-2 0  9999
2 49211  87.9013 152.3151 0001349 104.8952 255.2327 13.13474639104182
ONEWEB-0346             
1 49212U 21083AC  23298.61783575  .00000135  00000+0  30910-3 0  9992
2 49212  87.9253 167.5275 0002011  93.5348 266.6014 13.18687041102729
ONEWEB-0348             
1 49213U 21083AD  23298.89790918  .00000049  00000+0  88204-4 0  9996
2 49213  87.9140 106.6213 0001749 118.1670 241.9640 13.20770675109390
ONEWEB-0350             
1 49214U 21083AE  23298.87301308 -.00000179  00000+0 -52413-3 0  9994
2 49214  87.8948 152.3064 0001441  94.8205 265.3089 13.13469266104217
ONEWEB-0351             
1 49215U 21083AF  23298.89158758  .00000266  00000+0  62125-3 0  9992
2 49215  87.9148 106.6234 0001412  74.1586 285.9703 13.20773886109358
ONEWEB-0352             
1 49216U 21083AG  23299.53958233 -.00000372  00000+0 -10538-2 0  9991
2 49216  87.9010 152.1928 0001625  69.2893 290.8410 13.13470811105692
ONEWEB-0354             
1 49217U 21083AH  23298.53806271  .00000046  00000+0  80025-4 0  9991
2 49217  87.9144 106.6757 0001270  97.1333 262.9945 13.20771962109348
ONEWEB-0355             
1 49218U 21083AJ  23298.88572975 -.00000603  00000+0 -16862-2 0  9998
2 49218  87.9010 152.3229 0001430  75.0943 285.0344 13.13474244104184
ONEWEB-0357             
1 49219U 21083AK  23298.91264013 -.00000183  00000+0 -48289-3 0  9996
2 49219  87.9147 106.6214 0001979 101.7829 258.3526 13.20771822109393
ONEWEB-0332             
1 49279U 21090A   23298.89474983  .00000247  00000+0  63256-3 0  9996
2 49279  87.8938 121.8856 0001757  76.4056 283.7269 13.14501558100769
ONEWEB-0347             
1 49280U 21090B   23298.90422242  .00000046  00000+0  80748-4 0  9994
2 49280  87.9205 106.5839 0001988  73.0630 287.0721 13.20776560103629
ONEWEB-0349             
1 49281U 21090C   23298.93578001  .00000064  00000+0  12648-3 0  9996
2 49281  87.9148 106.6061 0001934  99.5050 260.6302 13.20769497102413
ONEWEB-0353             
1 49282U 21090D   23298.88629268  .00000385  00000+0  10031-2 0  9992
2 49282  87.8939 121.8681 0001814  74.9107 285.2223 13.14503654100760
ONEWEB-0356             
1 49283U 21090E   23298.93368402 -.00000035  00000+0 -11882-3 0  9999
2 49283  87.9142 106.6096 0002598 100.9975 259.1450 13.20770717102411
ONEWEB-0358             
1 49284U 21090F   23298.88738460  .00000141  00000+0  31389-3 0  9999
2 49284  87.9151 106.5964 0001710 102.1981 257.9344 13.20770383103138
ONEWEB-0359             
1 49285U 21090G   23299.49134024  .00000137  00000+0  30448-3 0  9994
2 49285  87.9139 106.5062 0001013 116.5903 243.5334 13.20770627104472
ONEWEB-0360             
1 49286U 21090H   23298.95051520  .00000048  00000+0  86568-4 0  9990
2 49286  87.9148 106.6128 0001524 107.1260 253.0040 13.20771636102431
ONEWEB-0361             
1 49287U 21090J   23298.93157271 -.00000014  00000+0 -67293-4 0  9998
2 49287  87.9141 106.6130 0001765  91.8271 268.3064 13.20769675102880
ONEWEB-0362             
1 49288U 21090K   23298.57455085  .00000047  00000+0  85254-4 0  9994
2 49288  87.9186 137.1835 0001379  62.4274 297.6998 13.19723997 99554
ONEWEB-0363             
1 49289U 21090L   23299.17568360  .00000353  00000+0  83599-3 0  9992
2 49289  87.9146 106.5597 0002424  92.5595 267.5816 13.20768408103759
ONEWEB-0364             
1 49290U 21090M   23298.91052283 -.00000074  00000+0 -21343-3 0  9998
2 49290  87.9153 106.6289 0001787  82.4542 277.6794 13.20773287104028
ONEWEB-0365             
1 49291U 21090N   23298.58403044  .00000247  00000+0  58546-3 0  9992
2 49291  87.9186 137.1709 0001680  78.3249 281.8072 13.19724440 99069
ONEWEB-0366             
1 49292U 21090P   23298.88204224 -.00001228  00000+0 -33466-2 0  9990
2 49292  87.8939 121.8754 0001865  82.9089 277.2252 13.14507828100744
ONEWEB-0367             
1 49293U 21090Q   23298.87055193  .00000109  00000+0  23591-3 0  9993
2 49293  87.9140 106.6161 0002588  98.0393 262.1034 13.20770499102401
ONEWEB-0368             
1 49294U 21090R   23298.54016490  .00000060  00000+0  11447-3 0  9998
2 49294  87.9152 106.7032 0002551  82.9693 277.1731 13.20769460103517
ONEWEB-0369             
1 49295U 21090S   23298.57929275  .00000105  00000+0  23114-3 0  9990
2 49295  87.9185 137.1651 0001756  78.0938 282.0392 13.19724355 99056
ONEWEB-0370             
1 49296U 21090T   23298.87897520  .00001923  00000+0  46972-2 0  9996
2 49296  87.9141 106.6187 0002319 101.2088 258.9306 13.20763666102440
ONEWEB-0371             
1 49297U 21090U   23299.49697771 -.00001832  00000+0 -46089-2 0  9992
2 49297  87.9181 136.9718 0001721  80.8198 279.3129 13.19732516100504
ONEWEB-0372             
1 49298U 21090V   23298.86843810 -.00000300  00000+0 -76862-3 0  9992
2 49298  87.9151 106.6213 0001467  76.5120 283.6176 13.20772235102416
ONEWEB-0373             
1 49299U 21090W   23298.89580207  .00000067  00000+0  13377-3 0  9994
2 49299  87.9218 106.5973 0002075  88.6556 271.4815 13.20770102103604
ONEWEB-0374             
1 49300U 21090X   23299.55442043 -.00000231  00000+0 -65883-3 0  9990
2 49300  87.8941 121.7308 0001717  82.8842 277.2483 13.14505541102123
ONEWEB-0375             
1 49301U 21090Y   23298.88317043 -.00000027  00000+0 -98459-4 0  9996
2 49301  87.9137 106.6192 0002198 106.2928 253.8447 13.20770374103109
ONEWEB-0376             
1 49302U 21090Z   23298.58560698  .00000140  00000+0  31701-3 0  9990
2 49302  87.9187 137.1710 0001708  72.0813 288.0505 13.19723832 99091
ONEWEB-0377             
1 49303U 21090AA  23298.88108215 -.00000841  00000+0 -21020-2 0  9999
2 49303  87.9140 106.6156 0001359  91.7431 268.3858 13.20760862103096
ONEWEB-0378             
1 49304U 21090AB  23298.54120597 -.00000250  00000+0 -64562-3 0  9993
2 49304  87.9153 106.6836 0001971  89.9102 270.2257 13.20770247102317
ONEWEB-0379             
1 49305U 21090AC  23298.93914518 -.00000062  00000+0 -20208-3 0  9991
2 49305  87.8937 121.8543 0001740  83.4282 276.7046 13.14501635100752
ONEWEB-0380             
1 49306U 21090AD  23298.58245471  .00000155  00000+0  35454-3 0  9998
2 49306  87.9186 137.1671 0001565  85.7963 274.3348 13.19725843 99062
ONEWEB-0381             
1 49307U 21090AE  23298.94210462  .00000113  00000+0  24526-3 0  9993
2 49307  87.9201 106.5687 0001565  94.2134 265.9178 13.20773958102416
ONEWEB-0382             
1 49308U 21090AF  23298.92947117 -.00000179  00000+0 -47319-3 0  9995
2 49308  87.9138 106.6044 0002172  98.0187 262.1193 13.20768407102407
ONEWEB-0383             
1 49309U 21090AG  23298.93278676 -.00000131  00000+0 -38675-3 0  9997
2 49309  87.8944 121.8406 0001903  84.3498 275.7848 13.14505745100780
ONEWEB-0384             
1 49310U 21090AH  23299.00101629  .00000027  00000+0  35190-4 0  9993
2 49310  87.9152 106.5918 0002265  97.6507 262.4884 13.20769763103732
ONEWEB-0385             
1 49311U 21090AJ  23298.54227647  .00000029  00000+0  40520-4 0  9996
2 49311  87.9152 106.6854 0001968  98.7912 261.3444 13.20766705102332
ONEWEB-0386             
1 49312U 21090AK  23299.16515590 -.00000038  00000+0 -12539-3 0  9993
2 49312  87.9145 106.5714 0001965  93.3389 266.7969 13.20773697103740
